CCSDS_OMM_VERS = 2.0
CREATION_DATE  = 
ORIGINATOR     = 

OBJECT_NAME    = STARLINK-36825
OBJECT_ID      = 2026-041B
CENTER_NAME    = EARTH
REF_FRAME      = TEME
TIME_SYSTEM    = UTC
MEAN_ELEMENT_THEORY = SGP/SGP4

EPOCH          = 2026-03-14T06:00:02.000160
MEAN_MOTION    = 15.80891394
ECCENTRICITY   = .0001281
INCLINATION    = 53.1591
RA_OF_ASC_NODE = 39.2711
ARG_OF_PERICENTER = 93.5013
MEAN_ANOMALY   = 125.5768

EPHEMERIS_TYPE = 0
CLASSIFICATION_TYPE = U
NORAD_CAT_ID   = 68041
ELEMENT_SET_NO = 999
REV_AT_EPOCH   = 310
BSTAR          = .99421226E-4
MEAN_MOTION_DOT = .18983E-3
MEAN_MOTION_DDOT = 0

CCSDS_OMM_VERS = 2.0
CREATION_DATE  = 
ORIGINATOR     = 

OBJECT_NAME    = STARLINK-36925
OBJECT_ID      = 2026-041C
CENTER_NAME    = EARTH
REF_FRAME      = TEME
TIME_SYSTEM    = UTC
MEAN_ELEMENT_THEORY = SGP/SGP4

EPOCH          = 2026-03-14T06:00:02.000160
MEAN_MOTION    = 15.79054025
ECCENTRICITY   = .00009706
INCLINATION    = 53.1591
RA_OF_ASC_NODE = 39.2831
ARG_OF_PERICENTER = 84.9419
MEAN_ANOMALY   = 128.4924

EPHEMERIS_TYPE = 0
CLASSIFICATION_TYPE = U
NORAD_CAT_ID   = 68042
ELEMENT_SET_NO = 999
REV_AT_EPOCH   = 310
BSTAR          = -.11969589E-1
MEAN_MOTION_DOT = -.1896365E-1
MEAN_MOTION_DDOT = 0

CCSDS_OMM_VERS = 2.0
CREATION_DATE  = 
ORIGINATOR     = 

OBJECT_NAME    = STARLINK-36902
OBJECT_ID      = 2026-041D
CENTER_NAME    = EARTH
REF_FRAME      = TEME
TIME_SYSTEM    = UTC
MEAN_ELEMENT_THEORY = SGP/SGP4

EPOCH          = 2026-03-14T06:00:02.000160
MEAN_MOTION    = 15.80847036
ECCENTRICITY   = .00009564
INCLINATION    = 53.1589
RA_OF_ASC_NODE = 39.2637
ARG_OF_PERICENTER = 85.7719
MEAN_ANOMALY   = 137.5987

EPHEMERIS_TYPE = 0
CLASSIFICATION_TYPE = U
NORAD_CAT_ID   = 68043
ELEMENT_SET_NO = 999
REV_AT_EPOCH   = 310
BSTAR          = .46652322E-3
MEAN_MOTION_DOT = .92255E-3
MEAN_MOTION_DDOT = 0

CCSDS_OMM_VERS = 2.0
CREATION_DATE  = 
ORIGINATOR     = 

OBJECT_NAME    = STARLINK-36966
OBJECT_ID      = 2026-041E
CENTER_NAME    = EARTH
REF_FRAME      = TEME
TIME_SYSTEM    = UTC
MEAN_ELEMENT_THEORY = SGP/SGP4

EPOCH          = 2026-03-14T06:00:02.000160
MEAN_MOTION    = 15.80864999
ECCENTRICITY   = .00012886
INCLINATION    = 53.1590
RA_OF_ASC_NODE = 39.2459
ARG_OF_PERICENTER = 108.5368
MEAN_ANOMALY   = 123.3654

EPHEMERIS_TYPE = 0
CLASSIFICATION_TYPE = U
NORAD_CAT_ID   = 68044
ELEMENT_SET_NO = 999
REV_AT_EPOCH   = 310
BSTAR          = -.11133046E-1
MEAN_MOTION_DOT = -.191551E-1
MEAN_MOTION_DDOT = 0

CCSDS_OMM_VERS = 2.0
CREATION_DATE  = 
ORIGINATOR     = 

OBJECT_NAME    = STARLINK-36864
OBJECT_ID      = 2026-041F
CENTER_NAME    = EARTH
REF_FRAME      = TEME
TIME_SYSTEM    = UTC
MEAN_ELEMENT_THEORY = SGP/SGP4

EPOCH          = 2026-03-14T06:00:02.000160
MEAN_MOTION    = 15.81131845
ECCENTRICITY   = .00007655
INCLINATION    = 53.1591
RA_OF_ASC_NODE = 39.2549
ARG_OF_PERICENTER = 99.4654
MEAN_ANOMALY   = 128.1211

EPHEMERIS_TYPE = 0
CLASSIFICATION_TYPE = U
NORAD_CAT_ID   = 68045
ELEMENT_SET_NO = 999
REV_AT_EPOCH   = 310
BSTAR          = -.3796969E-2
MEAN_MOTION_DOT = -.700569E-2
MEAN_MOTION_DDOT = 0

CCSDS_OMM_VERS = 2.0
CREATION_DATE  = 
ORIGINATOR     = 

OBJECT_NAME    = STARLINK-36321
OBJECT_ID      = 2026-041G
CENTER_NAME    = EARTH
REF_FRAME      = TEME
TIME_SYSTEM    = UTC
MEAN_ELEMENT_THEORY = SGP/SGP4

EPOCH          = 2026-03-14T06:00:02.000160
MEAN_MOTION    = 15.80862036
ECCENTRICITY   = .00013408
INCLINATION    = 53.1591
RA_OF_ASC_NODE = 39.2286
ARG_OF_PERICENTER = 79.1861
MEAN_ANOMALY   = 161.2635

EPHEMERIS_TYPE = 0
CLASSIFICATION_TYPE = U
NORAD_CAT_ID   = 68046
ELEMENT_SET_NO = 999
REV_AT_EPOCH   = 310
BSTAR          = .28033735E-3
MEAN_MOTION_DOT = .54955E-3
MEAN_MOTION_DDOT = 0

CCSDS_OMM_VERS = 2.0
CREATION_DATE  = 
ORIGINATOR     = 

OBJECT_NAME    = STARLINK-36181
OBJECT_ID      = 2026-041H
CENTER_NAME    = EARTH
REF_FRAME      = TEME
TIME_SYSTEM    = UTC
MEAN_ELEMENT_THEORY = SGP/SGP4

EPOCH          = 2026-03-14T06:00:02.000160
MEAN_MOTION    = 15.80897150
ECCENTRICITY   = .00010385
INCLINATION    = 53.1592
RA_OF_ASC_NODE = 39.2365
ARG_OF_PERICENTER = 89.2276
MEAN_ANOMALY   = 146.9350

EPHEMERIS_TYPE = 0
CLASSIFICATION_TYPE = U
NORAD_CAT_ID   = 68047
ELEMENT_SET_NO = 999
REV_AT_EPOCH   = 298
BSTAR          = -.5108725E-4
MEAN_MOTION_DOT = -.1078E-3
MEAN_MOTION_DDOT = 0

CCSDS_OMM_VERS = 2.0
CREATION_DATE  = 
ORIGINATOR     = 

OBJECT_NAME    = STARLINK-36318
OBJECT_ID      = 2026-041J
CENTER_NAME    = EARTH
REF_FRAME      = TEME
TIME_SYSTEM    = UTC
MEAN_ELEMENT_THEORY = SGP/SGP4

EPOCH          = 2026-03-14T06:00:02.000160
MEAN_MOTION    = 15.80863396
ECCENTRICITY   = .00009718
INCLINATION    = 53.1591
RA_OF_ASC_NODE = 39.2191
ARG_OF_PERICENTER = 105.6066
MEAN_ANOMALY   = 139.1278

EPHEMERIS_TYPE = 0
CLASSIFICATION_TYPE = U
NORAD_CAT_ID   = 68048
ELEMENT_SET_NO = 999
REV_AT_EPOCH   = 310
BSTAR          = .26390075E-4
MEAN_MOTION_DOT = .451E-4
MEAN_MOTION_DDOT = 0

CCSDS_OMM_VERS = 2.0
CREATION_DATE  = 
ORIGINATOR     = 

OBJECT_NAME    = STARLINK-36885
OBJECT_ID      = 2026-041K
CENTER_NAME    = EARTH
REF_FRAME      = TEME
TIME_SYSTEM    = UTC
MEAN_ELEMENT_THEORY = SGP/SGP4

EPOCH          = 2026-03-14T06:00:02.000160
MEAN_MOTION    = 15.81130354
ECCENTRICITY   = .00009769
INCLINATION    = 53.1589
RA_OF_ASC_NODE = 39.2018
ARG_OF_PERICENTER = 108.5286
MEAN_ANOMALY   = 144.6750

EPHEMERIS_TYPE = 0
CLASSIFICATION_TYPE = U
NORAD_CAT_ID   = 68049
ELEMENT_SET_NO = 999
REV_AT_EPOCH   = 310
BSTAR          = -.35925041E-2
MEAN_MOTION_DOT = -.665555E-2
MEAN_MOTION_DDOT = 0

CCSDS_OMM_VERS = 2.0
CREATION_DATE  = 
ORIGINATOR     = 

OBJECT_NAME    = STARLINK-36945
OBJECT_ID      = 2026-041L
CENTER_NAME    = EARTH
REF_FRAME      = TEME
TIME_SYSTEM    = UTC
MEAN_ELEMENT_THEORY = SGP/SGP4

EPOCH          = 2026-03-14T06:00:02.000160
MEAN_MOTION    = 15.80874711
ECCENTRICITY   = .00009532
INCLINATION    = 53.1590
RA_OF_ASC_NODE = 39.2104
ARG_OF_PERICENTER = 78.4730
MEAN_ANOMALY   = 170.5154

EPHEMERIS_TYPE = 0
CLASSIFICATION_TYPE = U
NORAD_CAT_ID   = 68050
ELEMENT_SET_NO = 999
REV_AT_EPOCH   = 310
BSTAR          = -.61574745E-4
MEAN_MOTION_DOT = -.12834E-3
MEAN_MOTION_DDOT = 0

CCSDS_OMM_VERS = 2.0
CREATION_DATE  = 
ORIGINATOR     = 

OBJECT_NAME    = STARLINK-35911
OBJECT_ID      = 2026-041M
CENTER_NAME    = EARTH
REF_FRAME      = TEME
TIME_SYSTEM    = UTC
MEAN_ELEMENT_THEORY = SGP/SGP4

EPOCH          = 2026-03-14T06:00:02.000160
MEAN_MOTION    = 15.80863402
ECCENTRICITY   = .00009537
INCLINATION    = 53.1592
RA_OF_ASC_NODE = 39.1931
ARG_OF_PERICENTER = 75.7065
MEAN_ANOMALY   = 181.8307

EPHEMERIS_TYPE = 0
CLASSIFICATION_TYPE = U
NORAD_CAT_ID   = 68051
ELEMENT_SET_NO = 999
REV_AT_EPOCH   = 307
BSTAR          = .45297212E-3
MEAN_MOTION_DOT = .89595E-3
MEAN_MOTION_DDOT = 0

CCSDS_OMM_VERS = 2.0
CREATION_DATE  = 
ORIGINATOR     = 

OBJECT_NAME    = STARLINK-35808
OBJECT_ID      = 2026-041N
CENTER_NAME    = EARTH
REF_FRAME      = TEME
TIME_SYSTEM    = UTC
MEAN_ELEMENT_THEORY = SGP/SGP4

EPOCH          = 2026-03-14T06:00:02.000160
MEAN_MOTION    = 15.80922546
ECCENTRICITY   = .00009936
INCLINATION    = 53.1589
RA_OF_ASC_NODE = 39.1835
ARG_OF_PERICENTER = 74.5295
MEAN_ANOMALY   = 187.2665

EPHEMERIS_TYPE = 0
CLASSIFICATION_TYPE = U
NORAD_CAT_ID   = 68052
ELEMENT_SET_NO = 999
REV_AT_EPOCH   = 307
BSTAR          = -.50688094E-3
MEAN_MOTION_DOT = -.99819E-3
MEAN_MOTION_DDOT = 0

