STARLINK-36825          
1 68041U 26041B   26073.25002315  .00018983  00000+0  99421-4 0  9995
2 68041  53.1591  39.2711 0001281  93.5013 125.5768 15.80891394  3107
STARLINK-36925          
1 68042U 26041C   26073.25002315 -.01896365  00000+0 -11970-1 0  9997
2 68042  53.1591  39.2831 0000970  84.9419 128.4924 15.79054025  3105
STARLINK-36902          
1 68043U 26041D   26073.25002315  .00092255  00000+0  46652-3 0  9998
2 68043  53.1589  39.2637 0000956  85.7719 137.5987 15.80847036  3107
STARLINK-36966          
1 68044U 26041E   26073.25002315 -.01915510  00000+0 -11133-1 0  9994
2 68044  53.1590  39.2459 0001288 108.5368 123.3654 15.80864999  3106
STARLINK-36864          
1 68045U 26041F   26073.25002315 -.00700569  00000+0 -37970-2 0  9998
2 68045  53.1591  39.2549 0000765  99.4654 128.1211 15.81131845  3103
STARLINK-36321          
1 68046U 26041G   26073.25002315  .00054955  00000+0  28034-3 0  9990
2 68046  53.1591  39.2286 0001340  79.1861 161.2635 15.80862036  3107
STARLINK-36181          
1 68047U 26041H   26073.25002315 -.00010780  00000+0 -51087-4 0  9996
2 68047  53.1592  39.2365 0001038  89.2276 146.9350 15.80897150  2987
STARLINK-36318          
1 68048U 26041J   26073.25002315  .00004510  00000+0  26390-4 0  9998
2 68048  53.1591  39.2191 0000971 105.6066 139.1278 15.80863396  3102
STARLINK-36885          
1 68049U 26041K   26073.25002315 -.00665555  00000+0 -35925-2 0  9995
2 68049  53.1589  39.2018 0000976 108.5286 144.6750 15.81130354  3107
STARLINK-36945          
1 68050U 26041L   26073.25002315 -.00012834  00000+0 -61575-4 0  9995
2 68050  53.1590  39.2104 0000953  78.4730 170.5154 15.80874711  3108
STARLINK-35911          
1 68051U 26041M   26073.25002315  .00089595  00000+0  45297-3 0  9994
2 68051  53.1592  39.1931 0000953  75.7065 181.8307 15.80863402  3075
STARLINK-35808          
1 68052U 26041N   26073.25002315 -.00099819  00000+0 -50688-3 0  9997
2 68052  53.1589  39.1835 0000993  74.5295 187.2665 15.80922546  3073
